{
    "links": {
        "self": "http://www.neowsapp.com/rest/v1/neo/3552655?api_key=iIulBulltgU6a56xZRHN4H3l9WmuAYTsLGpBGhQ2"
    },
    "id": "3552655",
    "neo_reference_id": "3552655",
    "name": "(2010 WV8)",
    "designation": "2010 WV8",
    "nasa_jpl_url": "http://ssd.jpl.nasa.gov/sbdb.cgi?sstr=3552655",
    "absolute_magnitude_h": 21.9,
    "estimated_diameter": {
        "kilometers": {
            "estimated_diameter_min": 0.1108038821,
            "estimated_diameter_max": 0.2477650126
        },
        "meters": {
            "estimated_diameter_min": 110.8038821264,
            "estimated_diameter_max": 247.7650126055
        },
        "miles": {
            "estimated_diameter_min": 0.068850319,
            "estimated_diameter_max": 0.1539539936
        },
        "feet": {
            "estimated_diameter_min": 363.5298086356,
            "estimated_diameter_max": 812.8773639568
        }
    },
    "is_potentially_hazardous_asteroid": true,
    "close_approach_data": [
        {
            "close_approach_date": "2004-06-01",
            "close_approach_date_full": "2004-Jun-01 09:58",
            "epoch_date_close_approach": 1086083880000,
            "relative_velocity": {
                "kilometers_per_second": "26.0989642672",
                "kilometers_per_hour": "93956.271361951",
                "miles_per_hour": "58380.7731693189"
            },
            "miss_distance": {
                "astronomical": "0.2647374536",
                "lunar": "102.9828694504",
                "kilometers": "39604159.167783832",
                "miles": "24608883.3777756016"
            },
            "orbiting_body": "Earth"
        },
        {
            "close_approach_date": "2007-08-12",
            "close_approach_date_full": "2007-Aug-12 06:37",
            "epoch_date_close_approach": 1186900620000,
            "relative_velocity": {
                "kilometers_per_second": "15.3700996603",
                "kilometers_per_hour": "55332.3587771358",
                "miles_per_hour": "34381.3759301597"
            },
            "miss_distance": {
                "astronomical": "0.3127457745",
                "lunar": "121.6581062805",
                "kilometers": "46786101.716700315",
                "miles": "29071535.541741747"
            },
            "orbiting_body": "Earth"
        },
        {
            "close_approach_date": "2007-08-18",
            "close_approach_date_full": "2007-Aug-18 07:17",
            "epoch_date_close_approach": 1187421420000,
            "relative_velocity": {
                "kilometers_per_second": "11.7611674124",
                "kilometers_per_hour": "42340.2026846069",
                "miles_per_hour": "26308.555384777"
            },
            "miss_distance": {
                "astronomical": "0.0672619923",
                "lunar": "26.1649150047",
                "kilometers": "10062250.780036401",
                "miles": "6252392.7074122938"
            },
            "orbiting_body": "Venus"
        },
        {
            "close_approach_date": "2010-10-22",
            "close_approach_date_full": "2010-Oct-22 20:58",
            "epoch_date_close_approach": 1287781080000,
            "relative_velocity": {
                "kilometers_per_second": "16.7025664587",
                "kilometers_per_hour": "60129.2392514392",
                "miles_per_hour": "37361.9709115401"
            },
            "miss_distance": {
                "astronomical": "0.082742795",
                "lunar": "32.186947255",
                "kilometers": "12378145.88984665",
                "miles": "7691423.19991777"
            },
            "orbiting_body": "Venus"
        },
        {
            "close_approach_date": "2010-11-17",
            "close_approach_date_full": "2010-Nov-17 01:51",
            "epoch_date_close_approach": 1289958660000,
            "relative_velocity": {
                "kilometers_per_second": "17.7989601076",
                "kilometers_per_hour": "64076.2563875296",
                "miles_per_hour": "39814.4938647958"
            },
            "miss_distance": {
                "astronomical": "0.0364199019",
                "lunar": "14.1673418391",
                "kilometers": "5448339.749848953",
                "miles": "3385441.3355554314"
            },
            "orbiting_body": "Earth"
        }
    ],
    "orbital_data": {
        "orbit_id": "15",
        "orbit_determination_date": "2017-04-06 08:55:32",
        "first_observation_date": "2010-11-28",
        "last_observation_date": "2011-01-05",
        "data_arc_in_days": 38,
        "observations_used": 84,
        "orbit_uncertainty": "6",
        "minimum_orbit_intersection": ".00603653",
        "jupiter_tisserand_invariant": "3.383",
        "epoch_osculation": "2459000.5",
        "eccentricity": ".6721168962508678",
        "semi_major_axis": "2.126733061905873",
        "inclination": "8.437242011661825",
        "ascending_node_longitude": "55.17503806145601",
        "orbital_period": "1132.838240462788",
        "perihelion_distance": ".6973198371835929",
        "perihelion_argument": "288.0425227146401",
        "aphelion_distance": "3.556146286628152",
        "perihelion_time": "2458875.915386199234",
        "mean_anomaly": "39.59123144532385",
        "mean_motion": ".3177858825218794",
        "equinox": "J2000",
        "orbit_class": {
            "orbit_class_type": "APO",
            "orbit_class_description": "Near-Earth asteroid orbits which cross the Earth’s orbit similar to that of 1862 Apollo",
            "orbit_class_range": "a (semi-major axis) > 1.0 AU; q (perihelion) < 1.017 AU"
        }
    },
    "is_sentry_object": false
}